AAUSAT 4                
1 41460U 16025E   21309.36085730  .00012299  00000-0  55362-3 0  9993
2 41460  98.1589  98.8487 0142209 289.0688  69.5432 15.12557789304006
BEESAT-4                
1 41619U 16040W   21309.38330196  .00009859  00000-0  37976-3 0  9996
2 41619  97.2523   1.4644 0010251 183.3999 176.7172 15.26496881286503
CANX-7                  
1 41788U 16059F   21309.56902270  .00093381  00000-0  89265-2 0  9991
2 41788  98.2463  60.5539 0020910 109.0004 251.3635 14.92607673274863
RAVAN                   
1 41849U 16067B   21309.29454822  .00002880  00000-0  24056-3 0  9995
2 41849  97.9801  75.3351 0006658  10.3144 349.8214 14.99351970272396
CELTEE 1                
1 41850U 16067C   21309.33650336  .00001166  00000-0  10498-3 0  9991
2 41850  97.9712  71.3689 0008692   9.9856 350.1536 14.97627699272207
OPTICUBE 04             
1 41851U 16067D   21309.30752624  .00000656  00000-0  62008-4 0  9990
2 41851  97.9712  70.6196 0009333  16.5005 343.6518 14.97234186272163
AEROCUBE 8D             
1 41852U 16067E   21309.30041826  .00001865  00000-0  16555-3 0  9994
2 41852  97.9708  70.5140 0009927  16.9016 343.2534 14.97422051272144
AEROCUBE 8C             
1 41853U 16067F   21309.27672377  .00001618  00000-0  14446-3 0  9995
2 41853  97.9689  70.3405 0009874  15.6987 344.4538 14.97379085272133
PROMETHEUS 2-1          
1 41854U 16067G   21309.30005356  .00003144  00000-0  27130-3 0  9997
2 41854  97.9720  71.1112 0010437  16.6546 343.5016 14.97989838272171
PROMETHEUS 2-3          
1 41855U 16067H   21309.29584983  .00003233  00000-0  27872-3 0  9996
2 41855  97.9718  71.1684 0010497  16.9586 343.1985 14.98004640272177
INS-1B                  
1 41954U 17008G   21309.39570297  .00009492  00000-0  35907-3 0  9997
2 41954  97.2920   9.3553 0007340 321.8295  38.2424 15.27133419262518
BGUSAT                  
1 41999U 17008BD  21309.42966471  .00016784  00000-0  54943-3 0  9996
2 41999  97.3114  17.1598 0005695 321.5040  38.5795 15.31733755262276
DIDO-2                  
1 42000U 17008BE  21309.44061477  .00004762  00000-0  18814-3 0  9994
2 42000  97.2915   9.4386 0007363 345.4465  14.6560 15.25953446261882
PEASSS                  
1 42015U 17008BV  21309.41742765  .00007688  00000-0  28621-3 0  9990
2 42015  97.2965  12.2985 0005317 348.2718  11.8397 15.27740442262531
AL-FARABI 1             
1 42016U 17008BW  21309.14172352  .00013733  00000-0  48639-3 0  9999
2 42016  97.3020  14.1831 0004969 346.5020  13.6086 15.29223499262721
NAYIF-1 (EO-88)         
1 42017U 17008BX  21309.43136869  .00010410  00000-0  36870-3 0  9998
2 42017  97.3015  14.4740 0004989 344.3154  15.7931 15.29290861262790
UCLSAT                  
1 42765U 17036A   21309.38112316  .00008463  00000-0  33400-3 0  9995
2 42765  97.2325 354.4100 0011728  46.6530 313.5684 15.25715167243654
LITUANICASAT-2          
1 42768U 17036D   21309.50149339  .00012968  00000-0  47847-3 0  9992
2 42768  97.2404 355.8292 0013822  33.0956 327.1145 15.27811062242993
AALTO-1                 
1 42775U 17036L   21309.42527554  .00004806  00000-0  20547-3 0  9990
2 42775  97.2303 350.5933 0014455  44.0024 316.2361 15.23208690242659
URSA MAIOR              
1 42776U 17036M   21309.40118396  .00005838  00000-0  24662-3 0  9997
2 42776  97.2316 351.1219 0014204  43.4646 316.7709 15.23529751242670
COMPASS 2               
1 42777U 17036N   21309.08471653  .00015293  00000-0  58037-3 0  9999
2 42777  97.2390 355.4009 0012145  37.2147 322.9931 15.26862831242865
DIAMOND RED             
1 42783U 17036U   21309.33909718  .00006593  00000-0  27016-3 0  9998
2 42783  97.2330 352.9906 0012718  50.3422 309.8936 15.24529176242771
PEGASUS                 
1 42784U 17036V   21309.07495499  .00009082  00000-0  36369-3 0  9993
2 42784  97.2335 353.5587 0012435  49.2548 310.9768 15.25198424242787
DIAMOND GREEN           
1 42785U 17036W   21308.81332820  .00007730  00000-0  31638-3 0  9995
2 42785  97.2336 352.5358 0012644  52.6428 307.5960 15.24510407242763
DIAMOND BLUE            
1 42786U 17036X   21309.07493759  .00007698  00000-0  31503-3 0  9998
2 42786  97.2335 352.7809 0012573  52.2679 307.9697 15.24516849242803
NUDTSAT                 
1 42787U 17036Y   21309.60692344  .00009652  00000-0  35961-3 0  9993
2 42787  97.2383 356.9846 0011366  39.8968 320.3107 15.27596060242873
SUCHAI                  
1 42788U 17036Z   21309.12602570  .00011114  00000-0  43168-3 0  9997
2 42788  97.2344 354.7942 0011810  46.1914 314.0300 15.26170372242935
SKCUBE                  
1 42789U 17036AA  21309.37901363  .00008559  00000-0  33655-3 0  9996
2 42789  97.2338 354.6781 0011728  46.1119 314.1086 15.25834183242875
VZLUSAT-1               
1 42790U 17036AB  21309.40746333  .00012460  00000-0  46381-3 0  9992
2 42790  97.2372 356.7778 0010853  41.6997 318.5068 15.27563224242994
ROBUSTA-1B              
1 42792U 17036AD  21309.12736764  .00010609  00000-0  41292-3 0  9999
2 42792  97.2340 354.8731 0011357  47.1503 313.0688 15.26117951242879
CICERO 6                
1 42793U 17036AE  21309.43324339  .00005394  00000-0  22063-3 0  9995
2 42793  97.2311 353.6715 0011015  50.9172 309.3044 15.24689559242917
D-SAT                   
1 42794U 17036AF  21309.29675574  .00001142  00000-0  10223-3 0  9992
2 42794  97.4570 321.6861 0126598 114.8773 246.5669 14.91755651238059
CORVUS BC2              
1 42846U 17042X   21309.17107308  .00001074  00000-0  10989-3 0  9992
2 42846  97.4495 173.8287 0010442  35.4434 324.7478 14.92410218234820
CORVUS BC1              
1 42847U 17042Y   21309.40074938  .00000735  00000-0  76681-4 0  9996
2 42847  97.4497 174.3108 0010093  34.1396 326.0471 14.92506582234868
MIRATA                  
1 43015U 17073C   21309.46566876  .00004978  00000-0  37914-3 0  9999
2 43015  97.6901 208.3045 0246935 195.3161 164.0484 14.81380492214086
MAKERSAT 0              
1 43016U 17073D   21309.51069396  .00002950  00000-0  22889-3 0  9994
2 43016  97.6931 208.2698 0251365 197.9863 161.2335 14.80444486214046
AEROCUBE 7B (OCSD B)    
1 43042U 17071F   21309.41577855  .00033312  00000-0  54590-3 0  9994
2 43042  51.6355  91.6010 0002550 112.9373 247.1886 15.52149212220692
AEROCUBE 7C (OCSD C)    
1 43043U 17071G   21309.52734840  .00026910  00000-0  44800-3 0  9995
2 43043  51.6348  91.5833 0002789 117.4735 242.6538 15.51821368220673
CHEFSAT                 
1 43044U 17071H   21309.40883102  .00238545  00000-0  14453-2 0  9998
2 43044  51.6299  40.1996 0004702 349.7746  10.3158 15.76295576221355
ASGARDIA 1              
1 43049U 17071N   21309.42609121  .00028436  00000-0  48040-3 0  9998
2 43049  51.6365  91.8153 0001347 147.7683 212.3388 15.51380514220662
ISARA                   
1 43050U 17071P   21309.51006798  .00084320  00000-0  75712-3 0  9991
2 43050  51.6300  51.8860 0002643 329.5025  30.5818 15.67537798221208
PROPCUBE 2 (FAUNA)      
1 43052U 17071R   21309.55041699  .00027494  00000-0  44262-3 0  9991
2 43052  51.6348  86.6303 0000968 149.4039 210.7008 15.52748829220735
CORVUS BC3              
1 43118U 18004H   21309.47351798  .00005389  00000-0  21966-3 0  9991
2 43118  97.3907  20.2354 0011479  76.3276 283.9239 15.24816394212063
MICROMAS-2A             
1 43131U 18004W   21309.51339117  .00011871  00000-0  42636-3 0  9992
2 43131  97.4009  24.5604 0009439  68.8262 291.3986 15.28773431212308
SPACEBEE-4              
1 43139U 18004AE  21309.49886648  .00015949  00000-0  52126-3 0  9998
2 43139  97.4087  27.5720 0008268  66.7427 293.4684 15.31779827212467
SPACEBEE-3              
1 43140U 18004AF  21309.54640093  .00020098  00000-0  60674-3 0  9996
2 43140  97.4127  29.6114 0007467  62.2161 297.9838 15.34272762212582
SPACEBEE-2              
1 43141U 18004AG  21309.16281765  .00035664  00000-0  10435-2 0  9996
2 43141  97.4151  29.9906 0007004  62.1440 298.0512 15.35146066212565
SPACEBEE-1              
1 43142U 18004AH  21309.19104311  .00037870  00000-0  10698-2 0  9993
2 43142  97.4163  30.8033 0006829  58.3713 301.8197 15.36236684212609
CICERO 7                
1 43143U 18004AJ  21309.47431591  .00011770  00000-0  42591-3 0  9997
2 43143  97.3982  24.4811 0008035  78.2672 281.9469 15.28540729212314
GOMX-4B                 
1 43196U 18015E   21309.40408487  .00002584  00000-0  10516-3 0  9993
2 43196  97.5051  82.5731 0019479 122.3350 237.9777 15.25271023208992
GOMX-4A                 
1 43197U 18015F   21309.62081196  .00006581  00000-0  25709-3 0  9993
2 43197  97.5042  83.1755 0019598 122.6710 292.4036 15.26048004209066
AEROCUBE 12A            
1 43556U 18046C   21309.40798438  .00012472  00000-0  39557-3 0  9998
2 43556  51.6389 189.6430 0006574 311.4575  48.5841 15.33042530184892
AEROCUBE 12B            
1 43557U 18046D   21309.10750488  .00010223  00000-0  33452-3 0  9999
2 43557  51.6386 193.5911 0006710 309.2703  50.7683 15.32253878184761
SURFSAT                 
1 43614U 18070B   21309.40858842  .00018471  00000-0  40158-3 0  9990
2 43614  93.0286   4.8060 0014052 164.1056 196.0645 15.44178517176403
CP7 (DAVE)              
1 43615U 18070C   21309.39079358  .00017823  00000-0  39248-3 0  9994
2 43615  93.0290   4.7340 0014242 164.8458 195.3229 15.43797934176389
ELFIN-B                 
1 43616U 18070D   21309.42422390  .00029453  00000-0  56002-3 0  9996
2 43616  93.0236   5.1489 0013799 159.8856 200.2950 15.48051909176557
ELFIN-A                 
1 43617U 18070E   21309.13923614  .00041643  00000-0  77243-3 0  9995
2 43617  93.0295   6.0218 0013213 157.7243 202.4594 15.48727017176537
CUBEBEL-1 (BSUSAT-1)    
1 43666U 18083E   21309.49868975  .00007776  00000-0  36295-3 0  9991
2 43666  97.4446 336.0636 0015053  43.7242  94.3931 15.20010982167432
CICERO 10               
1 43690U 18088A   21309.38871625  .00006480  00000-0  28315-3 0  9992
2 43690  85.0339 104.6399 0012245 249.6592 110.3334 15.21834298165656
